SatCatId,ObjectName,LaunchYear,OrbitalPeriod,LaunchMass,StatusCode,Inclination,Status,UcsData,OrbitClassEstimated,LaunchSiteCountry,Owner,UseType,Purpose,LaunchVehicleClass,TLE1,TLE2,MeanMotion,Eccentricity,OrbitClass
25727,ORION 3,1999,138.57,-1.0,UNK,19.83,Inactive,0,MEO,USA,USA,Unknown,Unknown,Unknown,1 25727U 99024A   25302.47986443  .00000093  00000+0  37740-3 0  9999,2 25727  19.8305 310.0120 0040994 273.5377  86.0262 10.39160850 44801,10.3916085,0.0040994,MEO
25730,FENGYUN 1C,1999,101.0,-1.0,-,98.89,Inactive,0,LEO,PRC,China,Unknown,Unknown,Unknown,1 25730U 99025A   25302.25458001  .00003920  00000+0  16705-2 0  9993,2 25730  98.8889   7.6777 0010445 188.5643 171.5360 14.25685552365035,14.25685552,0.0010445,LEO
25731,SJ-5,1999,101.92,-1.0,UNK,98.76,Inactive,0,LEO,PRC,China,Unknown,Unknown,Unknown,1 25731U 99025B   25302.39670192  .00000077  00000+0  64596-4 0  9999,2 25731  98.7602 345.2363 0015865 293.0355  66.9144 14.12882011362739,14.12882011,0.0015865,LEO
25736,MUBLCOM,1999,98.87,-1.0,UNK,97.71,Inactive,0,LEO,Western Range Airspace,USA,Unknown,Unknown,Unknown,1 25736U 99026B   25302.36148382  .00002047  00000+0  47033-3 0  9998,2 25736  97.7104 174.6557 0003206 234.1169 125.9733 14.56413843396237,14.56413843,0.0003206,LEO
25740,NIMIQ 1,1999,1460.77,-1.0,-,6.03,Inactive,0,GSO,Kazakhstan,Canada,Unknown,Unknown,Unknown,1 25740U 99027A   25302.49824155  .00000030  00000+0  00000+0 0  9996,2 25740   6.0301  73.5099 0006330 256.6262 147.1818  0.98577942 96505,0.98577942,0.000633,GSO
17561,GOES 7,1987,1441.48,-1.0,-,13.14,Inactive,0,GSO,USA,USA,Unknown,Unknown,Unknown,1 17561U 87022A   25301.76473083  .00000123  00000+0  00000+0 0  9992,2 17561  13.1386 339.2591 0001014 341.8804  28.1943  0.99897325124657,0.99897325,0.0001014,GSO
25756,KITSAT 3,1999,98.93,-1.0,-,98.64,Inactive,0,LEO,India,South Korea,Unknown,Unknown,Unknown,1 25756U 99029A   25302.33287876  .00000421  00000+0  10770-3 0  9994,2 25756  98.6445 325.1592 0012171 247.0374 112.9538 14.55626155401441,14.55626155,0.0012171,LEO
25758,IRS-P4 (OCEANSAT-1),1999,98.97,-1.0,-,97.94,Inactive,0,LEO,India,India,Unknown,Unknown,Unknown,1 25758U 99029C   25302.47920600  .00000803  00000+0  19630-3 0  9998,2 25758  97.9425 281.4064 0003667 130.3801 229.7717 14.54977315400564,14.54977315,0.0003667,LEO
25770,GLOBALSTAR M025,1999,128.28,-1.0,-,51.98,Inactive,0,MEO,USA,Globalstar,Unknown,Unknown,Unknown,1 25770U 99031A   25302.52352397 -.00000065  00000+0  88630-4 0  9991,2 25770  51.9800 208.0712 0002826  22.2705 149.3020 11.22557639496797,11.22557639,0.0002826,MEO
25771,GLOBALSTAR M049,1999,129.48,-1.0,-,51.99,Inactive,0,MEO,USA,Globalstar,Unknown,Unknown,Unknown,1 25771U 99031B   25302.18252165 -.00000054  00000+0  38099-3 0  9997,2 25771  51.9871 250.3587 0002412 249.6905 110.3632 11.12121227132337,11.12121227,0.0002412,MEO
25772,GLOBALSTAR M047,1999,127.22,-1.0,-,51.98,Inactive,0,LEO,USA,Globalstar,Unknown,Unknown,Unknown,1 25772U 99031C   25302.11191237 -.00000047  00000+0  62814-3 0  9997,2 25772  51.9824 234.6923 0016451 130.1345 230.0904 11.31930670486273,11.3193067,0.0016451,LEO
25773,GLOBALSTAR M052,1999,129.14,-1.0,-,51.99,Inactive,0,MEO,USA,Globalstar,Unknown,Unknown,Unknown,1 25773U 99031D   25302.53661940 -.00000013  00000+0  17682-2 0  9992,2 25773  51.9902 356.3407 0002535  41.3669 107.2076 11.15061219493493,11.15061219,0.0002535,MEO
17582,COSMOS 1827,1987,113.83,-1.0,UNK,82.57,Inactive,0,LEO,Russia,Russia/USSR,Unknown,Unknown,Unknown,1 17582U 87026A   25302.46827407  .00000021  00000+0  56027-4 0  9992,2 17582  82.5710 340.2245 0011212 325.8882  34.1489 12.65008302783476,12.65008302,0.0011212,LEO
17583,COSMOS 1828,1987,113.72,-1.0,UNK,82.56,Inactive,0,LEO,Russia,Russia/USSR,Unknown,Unknown,Unknown,1 17583U 87026B   25302.48528574  .00000017  00000+0  33120-4 0  9992,2 17583  82.5642 314.4995 0017826 235.5542 238.4268 12.66262563785347,12.66262563,0.0017826,LEO
17584,COSMOS 1829,1987,114.04,-1.0,UNK,82.58,Inactive,0,LEO,Russia,Russia/USSR,Unknown,Unknown,Unknown,1 17584U 87026C   25302.50846172  .00000015  00000+0  27096-4 0  9996,2 17584  82.5762  20.0885 0001757  92.1497 267.9795 12.62712341780292,12.62712341,0.0001757,LEO
17585,COSMOS 1830,1987,113.96,-1.0,UNK,82.56,Inactive,0,LEO,Russia,Russia/USSR,Unknown,Unknown,Unknown,1 17585U 87026D   25302.54574279  .00000024  00000+0  74360-4 0  9993,2 17585  82.5647 353.8941 0005655  45.5534  69.8673 12.63610927781518,12.63610927,0.0005655,LEO
17586,COSMOS 1831,1987,113.79,-1.0,UNK,82.56,Inactive,0,LEO,Russia,Russia/USSR,Unknown,Unknown,Unknown,1 17586U 87026E   25302.50145822  .00000038  00000+0  14542-3 0  9998,2 17586  82.5581 319.2097 0014064 292.2708 237.0089 12.65539285784255,12.65539285,0.0014064,LEO
17587,COSMOS 1832,1987,113.89,-1.0,UNK,82.57,Inactive,0,LEO,Russia,Russia/USSR,Unknown,Unknown,Unknown,1 17587U 87026F   25302.54776132  .00000019  00000+0  45860-4 0  9994,2 17587  82.5710 349.6006 0008600 356.7172 159.0568 12.64336945782550,12.64336945,0.00086,LEO
17589,COSMOS 1833,1987,101.91,-1.0,UNK,70.92,Inactive,0,LEO,Kazakhstan,Russia/USSR,Unknown,Unknown,Unknown,1 17589U 87027A   25302.26091229 -.00000302  00000+0 -13568-3 0  9999,2 17589  70.9166 242.2752 0020461  35.0336 325.2127 14.13026290991748,14.1302629,0.0020461,LEO
25785,ASTRA 1H,1999,1455.34,-1.0,-,10.14,Inactive,0,GSO,Kazakhstan,SES,Unknown,Unknown,Unknown,1 25785U 99033A   25302.54211330 -.00000161  00000+0  00000+0 0  9999,2 25785  10.1356  50.4329 0012831 157.1677 205.5452  0.98946092 48818,0.98946092,0.0012831,GSO
25789,QUIKSCAT,1999,99.21,-1.0,-,98.3,Inactive,0,LEO,USA,USA,Unknown,Unknown,Unknown,1 25789U 99034A   25302.52213494  .00000631  00000+0  16085-3 0  9990,2 25789  98.2965 181.3060 0094229 270.6312  88.4087 14.51488726379053,14.51488726,0.0094229,LEO
25791,FUSE 1,1999,99.7,-1.0,-,24.99,Inactive,0,LEO,USA,USA,Unknown,Unknown,Unknown,1 25791U 99035A   25302.49936719  .00000676  00000+0  14142-3 0  9993,2 25791  24.9856 346.9006 0010183 171.5811 188.4869 14.44299074390577,14.44299074,0.0010183,LEO
17611,RADUGA 20,1987,1500.6,-1.0,-,13.62,Inactive,0,HEO,Kazakhstan,Russia/USSR,Unknown,Unknown,Unknown,1 17611U 87028A   25302.36317713 -.00000143  00000+0  00000+0 0  9991,2 17611  13.6213 329.9433 0027694 172.6848 202.5771  0.95961805136109,0.95961805,0.0027694,HEO
25847,MOLNIYA 3-50,1999,717.94,-1.0,UNK,63.5,Inactive,0,MEO,Russia,Russia/USSR,Unknown,Unknown,Unknown,1 25847U 99036A   25297.71616365  .00000096  00000+0  00000+0 0  9996,2 25847  63.5032 179.7012 6776505 279.0129  15.6400  2.00572585192697,2.00572585,0.6776505,MEO
25851,GLOBALSTAR M035,1999,130.37,-1.0,-,51.99,Inactive,0,MEO,USA,Globalstar,Unknown,Unknown,Unknown,1 25851U 99037A   25302.50522108 -.00000077  00000+0 -49100-3 0  9996,2 25851  51.9917 115.4205 0013305 194.4279 197.7259 11.04540264111102,11.04540264,0.0013305,MEO
25852,GLOBALSTAR M032,1999,128.68,-1.0,-,52.0,Inactive,0,MEO,USA,Globalstar,Unknown,Unknown,Unknown,1 25852U 99037B   25302.22798446  .00000019  00000+0  27565-2 0  9990,2 25852  51.9958 291.9944 0012568  32.3576 327.7993 11.19064397149798,11.19064397,0.0012568,MEO
25853,GLOBALSTAR M051,1999,126.07,-1.0,-,51.98,Inactive,0,LEO,USA,Globalstar,Unknown,Unknown,Unknown,1 25853U 99037C   25302.12402728 -.00000055  00000+0  41855-3 0  9995,2 25853  51.9785  77.7806 0001372 104.7229 255.3733 11.42205642147695,11.42205642,0.0001372,LEO
25854,GLOBALSTAR M030,1999,124.66,-1.0,-,51.99,Inactive,0,LEO,USA,Globalstar,Unknown,Unknown,Unknown,1 25854U 99037D   25302.12555447 -.00000111  00000+0 -77242-3 0  9996,2 25854  51.9873 235.3688 0002958 297.8311  62.2206 11.55113290165524,11.5511329,0.0002958,LEO
25860,OKEAN-O,1999,97.29,-1.0,UNK,97.97,Inactive,0,LEO,Kazakhstan,Russia/USSR,Unknown,Unknown,Unknown,1 25860U 99039A   25302.44143993  .00001014  00000+0  14087-3 0  9998,2 25860  97.9666 358.5138 0001822  78.0460 282.0956 14.80048706414972,14.80048706,0.0001822,LEO
25872,GLOBALSTAR M048,1999,127.0,-1.0,-,51.94,Inactive,0,LEO,USA,Globalstar,Unknown,Unknown,Unknown,1 25872U 99041A   25302.45551666 -.00000063  00000+0  18334-3 0  9998,2 25872  51.9407  17.2094 0013429  59.3689 313.3744 11.33859541140217,11.33859541,0.0013429,LEO
25873,GLOBALSTAR M026,1999,130.1,-1.0,-,52.0,Inactive,0,MEO,USA,Globalstar,Unknown,Unknown,Unknown,1 25873U 99041B   25302.55756905 -.00000058  00000+0  20707-3 0  9994,2 25873  52.0004 231.8470 0001820 115.4607  54.9108 11.06851052163363,11.06851052,0.000182,MEO
25874,GLOBALSTAR M043,1999,127.92,-1.0,-,51.94,Inactive,0,LEO,USA,Globalstar,Unknown,Unknown,Unknown,1 25874U 99041C   25302.51889942 -.00000059  00000+0  26947-3 0  9992,2 25874  51.9360 130.0554 0013534 175.4186 210.9244 11.25696536138006,11.25696536,0.0013534,LEO
25875,GLOBALSTAR M028,1999,115.15,-1.0,-,51.96,Inactive,0,LEO,USA,Globalstar,Unknown,Unknown,Unknown,1 25875U 99041D   25302.26542528 -.00000091  00000+0  63568-4 0  9998,2 25875  51.9598 153.2662 0063517   3.5820 356.5484 12.50590511206957,12.50590511,0.0063517,LEO
25880,TELKOM 1,1999,1436.0,-1.0,-,7.11,Inactive,0,GSO,French Guiana,Indonesia,Unknown,Unknown,Unknown,1 25880U 99042A   25302.41708409 -.00000199  00000+0  00000+0 0  9990,2 25880   7.1059  68.9525 0015361 243.0154 323.9535  1.00278723 96079,1.00278723,0.0015361,GSO
25883,GLOBALSTAR M024,1999,129.71,-1.0,-,52.0,Inactive,0,MEO,USA,Globalstar,Unknown,Unknown,Unknown,1 25883U 99043A   25302.54018351 -.00000072  00000+0 -25849-3 0  9991,2 25883  52.0016  77.4696 0000689 355.5721  84.4986 11.10170746129786,11.10170746,6.89e-05,MEO
25884,GLOBALSTAR M027,1999,130.39,-1.0,-,52.02,Inactive,0,MEO,USA,Globalstar,Unknown,Unknown,Unknown,1 25884U 99043B   25302.54489885 -.00000089  00000+0 -96721-3 0  9991,2 25884  52.0179 159.2531 0020694 206.2700 153.7045 11.04372780156085,11.0437278,0.0020694,MEO
